HORYU-2
1 38340U 12025D   13010.40067183  .00001501  00000-0  25543-3 0  3175
2 38340 098.1979 316.8989 0013539 036.2617 323.9543 14.70531591 34926
RS-40
1 38736U 12041D   13010.70730804  .00000010  00000-0  00000 0 0  1586
2 38736 082.4767 253.3226 0018612 315.7172 044.2416 12.42649668 20685
PROITERES
1 38756U 12047B   13010.91094991  .00000556  00000-0  92541-4 0  4019
2 38756 098.2714 084.9721 0011593 245.9742 114.0257 14.74038576 18223
AENEAS
1 38760U 0        13010.30862094  .00004933  00000-0  45118-3 0 00386
2 38760 064.6736 037.6222 0216021 256.7016 100.9927 14.80037176005582
CSSWE-D
1 38761U 0        13010.31251606  .00004126  00000-0  38000-3 0 00352
2 38761 064.6743 037.6425 0217594 256.6983 100.9785 14.79845475005606
CXBN-E
1 38762U 0        13010.30523402  .00005383  00000-0  48699-3 0 00360
2 38762 064.6804 037.6257 0218357 256.1531 101.5196 14.79997447005677
OBJECT F
1 38763U 0        13010.30916126  .00003917  00000-0  36085-3 0 00356
2 38763 064.6735 037.6208 0218061 256.7365 100.9342 14.79862223005613
CINEMA-G
1 38764U 0        13010.30690144  .00004197  00000-0  38547-3 0 00341
2 38764 064.6741 037.6060 0217613 256.7942 100.8813 14.79914111005571
CP5
1 38765U 0        13010.36660122  .00005184  00000-0  47138-3 0 00366
2 38765 064.6738 037.3618 0216618 256.5143 101.1776 14.80096794005582
RAIKO
1 38852U 98067CN  13009.88145362  .00044688  00000-0  58132-3 0  1046
2 38852 051.6370 172.3721 0016959 134.3953 225.8440 15.58146824 15062
FITSAT 1
1 38853U 98067CP  13010.48054352  .00056196  00000-0  69131-3 0  1030
2 38853 051.6345 168.8741 0014129 152.4389 207.7418 15.59577046 15214
TechEdSat
1 38854U 98067CQ  13010.45222569  .00086325  00000-0  93119-3 0  1136
2 38854 051.6276 167.9275 0013428 159.2734 200.8913 15.62816432 15224
F 1
1 38855U 98067CR  13010.46310631  .00083376  00000-0  91295-3 0  1176
2 38855 051.6261 167.9957 0013300 158.5014 201.6844 15.62449500 15116
WeWish
1 38856U 98067CS  13010.46361259  .00173978  00000-0  13820-2 0  1343
2 38856 051.6392 165.7471 0013630 162.3936 197.7583 15.70059534 15142
